LEMUR-2-LEIA-PHILIP     
1 63246U 25052AN  26198.94326209 -.00000004  00000+0  45559-5 0  9993
2 63246  97.6797  90.3724 0005058 113.5974 246.5780 14.97392341 73275
LEMUR-2-LIA-MARTIN      
1 63248U 25052AQ  26198.13509070  .00001570  00000+0  13775-3 0  9996
2 63248  97.6861  90.1001 0005189  85.6997 274.4819 14.98037500 73169
LEMUR-2-DELOITTE-1      
1 63259U 25052BB  26198.91754426  .00002402  00000+0  20944-3 0  9992
2 63259  97.6884  91.2003 0002537  61.2383 298.9094 14.97795462 73290
LEMUR-2-EMERSONROSE     
1 63261U 25052BD  26198.19485496  .00002388  00000+0  20041-3 0  9994
2 63261  97.6883  91.1066 0002618  57.1007 303.0468 14.99301194 73231
LEMUR-2-MARACHE-FRAN    
1 63262U 25052BE  26198.94983519  .00001660  00000+0  13706-3 0  9999
2 63262  97.6823  92.2216 0005522 241.3686 118.6983 15.00325136 73374
LEMUR-2-THEFALCONER     
1 63264U 25052BG  26198.94840327  .00001056  00000+0  95366-4 0  9992
2 63264  97.6821  90.8183 0000473 247.5974 112.5198 14.97569358 73292
LEMUR-2-UNTITLED-SC     
1 63351U 25061A   26198.89632529  .00001728  00000+0  99399-4 0  9992
2 63351  97.5659 174.0411 0019467 154.0615 206.1596 15.13655854 72234
LEMUR-2-ESPERANZA       
1 63352U 25061B   26198.87147057  .00001760  00000+0  10093-3 0  9997
2 63352  97.5666 174.1173 0019065 153.4067 206.8147 15.13762207 72237
LEMUR-2-KREMPEL-BRO2    
1 63353U 25061C   26198.88968870  .00001837  00000+0  10388-3 0  9995
2 63353  97.5711 174.7078 0020199 146.3650 213.8868 15.14189102 72256
LEMUR-2-THERMORAPTOR    
1 63354U 25061D   26198.87009868  .00001857  00000+0  10477-3 0  9999
2 63354  97.5717 174.7700 0019928 145.3239 214.9296 15.14271999 72258
LEMUR-2-NEUROSPICY      
1 63355U 25061E   26198.90547788  .00001861  00000+0  10469-3 0  9998
2 63355  97.5645 174.4075 0017743 148.0328 212.1984 15.14390938 72263
LEMUR-2-TILLINFINITY    
1 63356U 25061F   26198.92890457  .00001908  00000+0  10547-3 0  9994
2 63356  97.5629 174.7430 0019277 137.0245 223.2497 15.14976106 72296
LEMUR-2-KREMPEL-BRO1    
1 63357U 25061G   26198.90630370  .00001872  00000+0  10409-3 0  9996
2 63357  97.5631 174.6278 0019879 138.4216 221.8532 15.14782081 72280
LEMUR-2-LANGER2SPACE    
1 63358U 25061H   26198.87290649  .00001898  00000+0  10647-3 0  9996
2 63358  97.5635 174.3964 0017619 146.4751 213.7599 15.14475742 72261
LEMUR-2-BALTO           
1 63395U 25052BH  26197.93372968  .00002437  00000+0  19881-3 0  9997
2 63395  97.6925  91.2085 0005044 320.2373  39.8480 15.00373082 73229
LEMUR-2-KRISH           
1 64561U 25135AK  26198.90189761  .00001908  00000+0  17327-3 0  9995
2 64561  97.7769 313.5749 0001140 100.5388 259.5962 14.96458756 58514
