{"fetched_at":"2026-07-18T06:27:50.593Z","source":"https://celestrak.org/NORAD/elements/gp.php?GROUP=spire&FORMAT=JSON","constellation":"spire","records":[{"OBJECT_NAME":"LEMUR-2-LEIA-PHILIP","OBJECT_ID":"2025-052AN","EPOCH":"2026-07-17T22:38:17.844576","CLASSIFICATION_TYPE":"U","MEAN_MOTION":14.97392341,"ECCENTRICITY":0.00050589,"INCLINATION":97.6797,"RA_OF_ASC_NODE":90.3724,"ARG_OF_PERICENTER":113.5974,"MEAN_ANOMALY":246.578,"EPHEMERIS_TYPE":0,"NORAD_CAT_ID":63246,"ELEMENT_SET_NO":999,"REV_AT_EPOCH":7327,"BSTAR":0.000004555851,"MEAN_MOTION_DOT":-4e-8,"MEAN_MOTION_DDOT":0},{"OBJECT_NAME":"LEMUR-2-LIA-MARTIN","OBJECT_ID":"2025-052AQ","EPOCH":"2026-07-17T03:14:31.836480","CLASSIFICATION_TYPE":"U","MEAN_MOTION":14.980375,"ECCENTRICITY":0.00051892,"INCLINATION":97.6861,"RA_OF_ASC_NODE":90.1001,"ARG_OF_PERICENTER":85.6997,"MEAN_ANOMALY":274.4819,"EPHEMERIS_TYPE":0,"NORAD_CAT_ID":63248,"ELEMENT_SET_NO":999,"REV_AT_EPOCH":7316,"BSTAR":0.00013774583,"MEAN_MOTION_DOT":0.0000157,"MEAN_MOTION_DDOT":0},{"OBJECT_NAME":"LEMUR-2-DELOITTE-1","OBJECT_ID":"2025-052BB","EPOCH":"2026-07-17T22:01:15.824064","CLASSIFICATION_TYPE":"U","MEAN_MOTION":14.97795462,"ECCENTRICITY":0.00025373,"INCLINATION":97.6884,"RA_OF_ASC_NODE":91.2003,"ARG_OF_PERICENTER":61.2383,"MEAN_ANOMALY":298.9094,"EPHEMERIS_TYPE":0,"NORAD_CAT_ID":63259,"ELEMENT_SET_NO":999,"REV_AT_EPOCH":7329,"BSTAR":0.00020944461,"MEAN_MOTION_DOT":0.00002402,"MEAN_MOTION_DDOT":0},{"OBJECT_NAME":"LEMUR-2-EMERSONROSE","OBJECT_ID":"2025-052BD","EPOCH":"2026-07-17T04:40:35.468544","CLASSIFICATION_TYPE":"U","MEAN_MOTION":14.99301194,"ECCENTRICITY":0.00026189,"INCLINATION":97.6883,"RA_OF_ASC_NODE":91.1066,"ARG_OF_PERICENTER":57.1007,"MEAN_ANOMALY":303.0468,"EPHEMERIS_TYPE":0,"NORAD_CAT_ID":63261,"ELEMENT_SET_NO":999,"REV_AT_EPOCH":7323,"BSTAR":0.00020040749,"MEAN_MOTION_DOT":0.00002388,"MEAN_MOTION_DDOT":0},{"OBJECT_NAME":"LEMUR-2-MARACHE-FRAN","OBJECT_ID":"2025-052BE","EPOCH":"2026-07-17T22:47:45.760416","CLASSIFICATION_TYPE":"U","MEAN_MOTION":15.00325136,"ECCENTRICITY":0.00055225,"INCLINATION":97.6823,"RA_OF_ASC_NODE":92.2216,"ARG_OF_PERICENTER":241.3686,"MEAN_ANOMALY":118.6983,"EPHEMERIS_TYPE":0,"NORAD_CAT_ID":63262,"ELEMENT_SET_NO":999,"REV_AT_EPOCH":7337,"BSTAR":0.00013706438,"MEAN_MOTION_DOT":0.0000166,"MEAN_MOTION_DDOT":0},{"OBJECT_NAME":"LEMUR-2-THEFALCONER","OBJECT_ID":"2025-052BG","EPOCH":"2026-07-17T22:45:42.042528","CLASSIFICATION_TYPE":"U","MEAN_MOTION":14.97569358,"ECCENTRICITY":0.00004739,"INCLINATION":97.6821,"RA_OF_ASC_NODE":90.8183,"ARG_OF_PERICENTER":247.5974,"MEAN_ANOMALY":112.5198,"EPHEMERIS_TYPE":0,"NORAD_CAT_ID":63264,"ELEMENT_SET_NO":999,"REV_AT_EPOCH":7329,"BSTAR":0.000095366085,"MEAN_MOTION_DOT":0.00001056,"MEAN_MOTION_DDOT":0},{"OBJECT_NAME":"LEMUR-2-UNTITLED-SC","OBJECT_ID":"2025-061A","EPOCH":"2026-07-17T21:30:42.505056","CLASSIFICATION_TYPE":"U","MEAN_MOTION":15.13655854,"ECCENTRICITY":0.00194675,"INCLINATION":97.5659,"RA_OF_ASC_NODE":174.0411,"ARG_OF_PERICENTER":154.0615,"MEAN_ANOMALY":206.1596,"EPHEMERIS_TYPE":0,"NORAD_CAT_ID":63351,"ELEMENT_SET_NO":999,"REV_AT_EPOCH":7223,"BSTAR":0.000099399022,"MEAN_MOTION_DOT":0.00001728,"MEAN_MOTION_DDOT":0},{"OBJECT_NAME":"LEMUR-2-ESPERANZA","OBJECT_ID":"2025-061B","EPOCH":"2026-07-17T20:54:55.057248","CLASSIFICATION_TYPE":"U","MEAN_MOTION":15.13762207,"ECCENTRICITY":0.00190656,"INCLINATION":97.5666,"RA_OF_ASC_NODE":174.1173,"ARG_OF_PERICENTER":153.4067,"MEAN_ANOMALY":206.8147,"EPHEMERIS_TYPE":0,"NORAD_CAT_ID":63352,"ELEMENT_SET_NO":999,"REV_AT_EPOCH":7223,"BSTAR":0.00010092637,"MEAN_MOTION_DOT":0.0000176,"MEAN_MOTION_DDOT":0},{"OBJECT_NAME":"LEMUR-2-KREMPEL-BRO2","OBJECT_ID":"2025-061C","EPOCH":"2026-07-17T21:21:09.103680","CLASSIFICATION_TYPE":"U","MEAN_MOTION":15.14189102,"ECCENTRICITY":0.00201991,"INCLINATION":97.5711,"RA_OF_ASC_NODE":174.7078,"ARG_OF_PERICENTER":146.365,"MEAN_ANOMALY":213.8868,"EPHEMERIS_TYPE":0,"NORAD_CAT_ID":63353,"ELEMENT_SET_NO":999,"REV_AT_EPOCH":7225,"BSTAR":0.00010388431,"MEAN_MOTION_DOT":0.00001837,"MEAN_MOTION_DDOT":0},{"OBJECT_NAME":"LEMUR-2-THERMORAPTOR","OBJECT_ID":"2025-061D","EPOCH":"2026-07-17T20:52:56.525952","CLASSIFICATION_TYPE":"U","MEAN_MOTION":15.14271999,"ECCENTRICITY":0.00199289,"INCLINATION":97.5717,"RA_OF_ASC_NODE":174.77,"ARG_OF_PERICENTER":145.3239,"MEAN_ANOMALY":214.9296,"EPHEMERIS_TYPE":0,"NORAD_CAT_ID":63354,"ELEMENT_SET_NO":999,"REV_AT_EPOCH":7225,"BSTAR":0.00010476919,"MEAN_MOTION_DOT":0.00001857,"MEAN_MOTION_DDOT":0},{"OBJECT_NAME":"LEMUR-2-NEUROSPICY","OBJECT_ID":"2025-061E","EPOCH":"2026-07-17T21:43:53.288832","CLASSIFICATION_TYPE":"U","MEAN_MOTION":15.14390938,"ECCENTRICITY":0.00177437,"INCLINATION":97.5645,"RA_OF_ASC_NODE":174.4075,"ARG_OF_PERICENTER":148.0328,"MEAN_ANOMALY":212.1984,"EPHEMERIS_TYPE":0,"NORAD_CAT_ID":63355,"ELEMENT_SET_NO":999,"REV_AT_EPOCH":7226,"BSTAR":0.00010469154,"MEAN_MOTION_DOT":0.00001861,"MEAN_MOTION_DDOT":0},{"OBJECT_NAME":"LEMUR-2-TILLINFINITY","OBJECT_ID":"2025-061F","EPOCH":"2026-07-17T22:17:37.354848","CLASSIFICATION_TYPE":"U","MEAN_MOTION":15.14976106,"ECCENTRICITY":0.00192779,"INCLINATION":97.5629,"RA_OF_ASC_NODE":174.743,"ARG_OF_PERICENTER":137.0245,"MEAN_ANOMALY":223.2497,"EPHEMERIS_TYPE":0,"NORAD_CAT_ID":63356,"ELEMENT_SET_NO":999,"REV_AT_EPOCH":7229,"BSTAR":0.00010546616,"MEAN_MOTION_DOT":0.00001908,"MEAN_MOTION_DDOT":0},{"OBJECT_NAME":"LEMUR-2-KREMPEL-BRO1","OBJECT_ID":"2025-061G","EPOCH":"2026-07-17T21:45:04.639680","CLASSIFICATION_TYPE":"U","MEAN_MOTION":15.14782081,"ECCENTRICITY":0.00198796,"INCLINATION":97.5631,"RA_OF_ASC_NODE":174.6278,"ARG_OF_PERICENTER":138.4216,"MEAN_ANOMALY":221.8532,"EPHEMERIS_TYPE":0,"NORAD_CAT_ID":63357,"ELEMENT_SET_NO":999,"REV_AT_EPOCH":7228,"BSTAR":0.00010408968,"MEAN_MOTION_DOT":0.00001872,"MEAN_MOTION_DDOT":0},{"OBJECT_NAME":"LEMUR-2-LANGER2SPACE","OBJECT_ID":"2025-061H","EPOCH":"2026-07-17T20:56:59.120736","CLASSIFICATION_TYPE":"U","MEAN_MOTION":15.14475742,"ECCENTRICITY":0.00176198,"INCLINATION":97.5635,"RA_OF_ASC_NODE":174.3964,"ARG_OF_PERICENTER":146.4751,"MEAN_ANOMALY":213.7599,"EPHEMERIS_TYPE":0,"NORAD_CAT_ID":63358,"ELEMENT_SET_NO":999,"REV_AT_EPOCH":7226,"BSTAR":0.0001064699,"MEAN_MOTION_DOT":0.00001898,"MEAN_MOTION_DDOT":0},{"OBJECT_NAME":"LEMUR-2-BALTO","OBJECT_ID":"2025-052BH","EPOCH":"2026-07-16T22:24:34.244352","CLASSIFICATION_TYPE":"U","MEAN_MOTION":15.00373082,"ECCENTRICITY":0.00050442,"INCLINATION":97.6925,"RA_OF_ASC_NODE":91.2085,"ARG_OF_PERICENTER":320.2373,"MEAN_ANOMALY":39.848,"EPHEMERIS_TYPE":0,"NORAD_CAT_ID":63395,"ELEMENT_SET_NO":999,"REV_AT_EPOCH":7322,"BSTAR":0.0001988074,"MEAN_MOTION_DOT":0.00002437,"MEAN_MOTION_DDOT":0},{"OBJECT_NAME":"LEMUR-2-KRISH","OBJECT_ID":"2025-135AK","EPOCH":"2026-07-17T21:38:43.953504","CLASSIFICATION_TYPE":"U","MEAN_MOTION":14.96458756,"ECCENTRICITY":0.00011409,"INCLINATION":97.7769,"RA_OF_ASC_NODE":313.5749,"ARG_OF_PERICENTER":100.5388,"MEAN_ANOMALY":259.5962,"EPHEMERIS_TYPE":0,"NORAD_CAT_ID":64561,"ELEMENT_SET_NO":999,"REV_AT_EPOCH":5851,"BSTAR":0.00017326887,"MEAN_MOTION_DOT":0.00001908,"MEAN_MOTION_DDOT":0}]}
